STARLINK-1047           
1 44752U 19074AR  26068.49630605  .00012216  00000+0  39384-3 0  9999
2 44752  53.0690 146.9116 0002226 203.7253 156.3646 15.32581056349316
STARLINK-2103           
1 47383U 21005AL  26068.08255076  .00001146  00000+0  49613-4 0  9996
2 47383  53.1613  17.1416 0001288  95.4629 264.6519 15.31044749283622
